O3B FM4                 
1 39189U 13031B   25332.66896757 -.00000008  00000+0  00000+0 0  9994
2 39189   0.0610 354.3691 0004387 278.5603  87.0265  5.00115021227018
O3B FM2                 
1 39190U 13031C   25333.53438528 -.00000007  00000+0  00000+0 0  9990
2 39190   0.0656 350.8887 0002895 257.6693 111.4172  5.00115882227112
O3B PFM                 
1 39191U 13031D   25333.54847128 -.00000007  00000+0  00000+0 0  9992
2 39191   0.0415  34.4416 0001918 237.5383  88.0042  5.00115806226689
IRIS                    
1 39197U 13033A   25333.52859610  .00001741  00000+0  20869-3 0  9991
2 39197  97.9401 168.3535 0023441 251.3299 108.5371 14.85197484670736
SJ-11-05                
1 39202U 13035A   25333.86114471  .00000783  00000+0  15672-3 0  9997
2 39202  98.2774 152.3555 0010748 135.2566 224.9506 14.64585563660051
MUOS-2                  
1 39206U 13036A   25333.52475536  .00000016  00000+0  00000+0 0  9991
2 39206   4.5999  45.0383 0052426 180.4185 206.2519  1.00222897 45192
SHIYAN-7 (SY-7)         
1 39208U 13037A   25333.75283784  .00000804  00000+0  13624-3 0  9996
2 39208  98.0856 333.0610 0009175  66.5404 293.6766 14.71942635662862
CHUANGXIN-3 (CX-3)      
1 39209U 13037B   25333.73927990  .00001376  00000+0  21686-3 0  9991
2 39209  98.0812 335.4832 0005368  61.1643 299.0104 14.74058882662965
