{
  "type": "FeatureCollection",
  "features": [
    {
      "type": "Feature",
      "properties": {
        "OBJECT_NAME": "O3B FM4",
        "OBJECT_ID": "2013-031B",
        "EPOCH": "2025-11-28T16:03:18.798048",
        "MEAN_MOTION": 5.00115021,
        "ECCENTRICITY": 0.00043876,
        "INCLINATION": 0.061,
        "RA_OF_ASC_NODE": 354.3691,
        "ARG_OF_PERICENTER": 278.5603,
        "MEAN_ANOMALY": 87.0265,
        "EPHEMERIS_TYPE": 0,
        "CLASSIFICATION_TYPE": "U",
        "NORAD_CAT_ID": 39189,
        "ELEMENT_SET_NO": 999,
        "REV_AT_EPOCH": 22701,
        "BSTAR": 0,
        "MEAN_MOTION_DOT": -8e-08,
        "MEAN_MOTION_DDOT": 0,
        "norad_id": 39189,
        "name": "O3B FM4",
        "group": "active",
        "longitude_deg": NaN,
        "latitude_deg": NaN,
        "alt_km": NaN,
        "orbit_class": "HEO",
        "timestamp": "2025-11-30T05:40:21.617083+00:00"
      },
      "geometry": {
        "type": "Point",
        "coordinates": [
          NaN,
          NaN
        ]
      }
    },
    {
      "type": "Feature",
      "properties": {
        "OBJECT_NAME": "O3B FM2",
        "OBJECT_ID": "2013-031C",
        "EPOCH": "2025-11-29T12:49:30.888192",
        "MEAN_MOTION": 5.00115882,
        "ECCENTRICITY": 0.0002895,
        "INCLINATION": 0.0656,
        "RA_OF_ASC_NODE": 350.8887,
        "ARG_OF_PERICENTER": 257.6693,
        "MEAN_ANOMALY": 111.4172,
        "EPHEMERIS_TYPE": 0,
        "CLASSIFICATION_TYPE": "U",
        "NORAD_CAT_ID": 39190,
        "ELEMENT_SET_NO": 999,
        "REV_AT_EPOCH": 22711,
        "BSTAR": 0,
        "MEAN_MOTION_DOT": -7e-08,
        "MEAN_MOTION_DDOT": 0,
        "norad_id": 39190,
        "name": "O3B FM2",
        "group": "active",
        "longitude_deg": NaN,
        "latitude_deg": NaN,
        "alt_km": NaN,
        "orbit_class": "HEO",
        "timestamp": "2025-11-30T05:40:21.617089+00:00"
      },
      "geometry": {
        "type": "Point",
        "coordinates": [
          NaN,
          NaN
        ]
      }
    },
    {
      "type": "Feature",
      "properties": {
        "OBJECT_NAME": "O3B PFM",
        "OBJECT_ID": "2013-031D",
        "EPOCH": "2025-11-29T13:09:47.918592",
        "MEAN_MOTION": 5.00115806,
        "ECCENTRICITY": 0.0001918,
        "INCLINATION": 0.0415,
        "RA_OF_ASC_NODE": 34.4416,
        "ARG_OF_PERICENTER": 237.5383,
        "MEAN_ANOMALY": 88.0042,
        "EPHEMERIS_TYPE": 0,
        "CLASSIFICATION_TYPE": "U",
        "NORAD_CAT_ID": 39191,
        "ELEMENT_SET_NO": 999,
        "REV_AT_EPOCH": 22668,
        "BSTAR": 0,
        "MEAN_MOTION_DOT": -7e-08,
        "MEAN_MOTION_DDOT": 0,
        "norad_id": 39191,
        "name": "O3B PFM",
        "group": "active",
        "longitude_deg": NaN,
        "latitude_deg": NaN,
        "alt_km": NaN,
        "orbit_class": "HEO",
        "timestamp": "2025-11-30T05:40:21.617098+00:00"
      },
      "geometry": {
        "type": "Point",
        "coordinates": [
          NaN,
          NaN
        ]
      }
    },
    {
      "type": "Feature",
      "properties": {
        "OBJECT_NAME": "IRIS",
        "OBJECT_ID": "2013-033A",
        "EPOCH": "2025-11-29T12:41:10.703040",
        "MEAN_MOTION": 14.85197484,
        "ECCENTRICITY": 0.0023441,
        "INCLINATION": 97.9401,
        "RA_OF_ASC_NODE": 168.3535,
        "ARG_OF_PERICENTER": 251.3299,
        "MEAN_ANOMALY": 108.5371,
        "EPHEMERIS_TYPE": 0,
        "CLASSIFICATION_TYPE": "U",
        "NORAD_CAT_ID": 39197,
        "ELEMENT_SET_NO": 999,
        "REV_AT_EPOCH": 67073,
        "BSTAR": 0.00020869,
        "MEAN_MOTION_DOT": 1.741e-05,
        "MEAN_MOTION_DDOT": 0,
        "norad_id": 39197,
        "name": "IRIS",
        "group": "active",
        "longitude_deg": NaN,
        "latitude_deg": NaN,
        "alt_km": NaN,
        "orbit_class": "HEO",
        "timestamp": "2025-11-30T05:40:21.617105+00:00"
      },
      "geometry": {
        "type": "Point",
        "coordinates": [
          NaN,
          NaN
        ]
      }
    },
    {
      "type": "Feature",
      "properties": {
        "OBJECT_NAME": "SJ-11-05",
        "OBJECT_ID": "2013-035A",
        "EPOCH": "2025-11-29T20:40:02.902944",
        "MEAN_MOTION": 14.64585563,
        "ECCENTRICITY": 0.0010748,
        "INCLINATION": 98.2774,
        "RA_OF_ASC_NODE": 152.3555,
        "ARG_OF_PERICENTER": 135.2566,
        "MEAN_ANOMALY": 224.9506,
        "EPHEMERIS_TYPE": 0,
        "CLASSIFICATION_TYPE": "U",
        "NORAD_CAT_ID": 39202,
        "ELEMENT_SET_NO": 999,
        "REV_AT_EPOCH": 66005,
        "BSTAR": 0.00015672,
        "MEAN_MOTION_DOT": 7.83e-06,
        "MEAN_MOTION_DDOT": 0,
        "norad_id": 39202,
        "name": "SJ-11-05",
        "group": "active",
        "longitude_deg": NaN,
        "latitude_deg": NaN,
        "alt_km": NaN,
        "orbit_class": "HEO",
        "timestamp": "2025-11-30T05:40:21.617119+00:00"
      },
      "geometry": {
        "type": "Point",
        "coordinates": [
          NaN,
          NaN
        ]
      }
    },
    {
      "type": "Feature",
      "properties": {
        "OBJECT_NAME": "MUOS-2",
        "OBJECT_ID": "2013-036A",
        "EPOCH": "2025-11-29T12:35:38.863104",
        "MEAN_MOTION": 1.00222897,
        "ECCENTRICITY": 0.0052426,
        "INCLINATION": 4.5999,
        "RA_OF_ASC_NODE": 45.0383,
        "ARG_OF_PERICENTER": 180.4185,
        "MEAN_ANOMALY": 206.2519,
        "EPHEMERIS_TYPE": 0,
        "CLASSIFICATION_TYPE": "U",
        "NORAD_CAT_ID": 39206,
        "ELEMENT_SET_NO": 999,
        "REV_AT_EPOCH": 4519,
        "BSTAR": 0,
        "MEAN_MOTION_DOT": 1.6e-07,
        "MEAN_MOTION_DDOT": 0,
        "norad_id": 39206,
        "name": "MUOS-2",
        "group": "active",
        "longitude_deg": NaN,
        "latitude_deg": NaN,
        "alt_km": NaN,
        "orbit_class": "HEO",
        "timestamp": "2025-11-30T05:40:21.617126+00:00"
      },
      "geometry": {
        "type": "Point",
        "coordinates": [
          NaN,
          NaN
        ]
      }
    },
    {
      "type": "Feature",
      "properties": {
        "OBJECT_NAME": "SHIYAN-7 (SY-7)",
        "OBJECT_ID": "2013-037A",
        "EPOCH": "2025-11-29T18:04:05.189376",
        "MEAN_MOTION": 14.71942635,
        "ECCENTRICITY": 0.0009175,
        "INCLINATION": 98.0856,
        "RA_OF_ASC_NODE": 333.061,
        "ARG_OF_PERICENTER": 66.5404,
        "MEAN_ANOMALY": 293.6766,
        "EPHEMERIS_TYPE": 0,
        "CLASSIFICATION_TYPE": "U",
        "NORAD_CAT_ID": 39208,
        "ELEMENT_SET_NO": 999,
        "REV_AT_EPOCH": 66286,
        "BSTAR": 0.00013624,
        "MEAN_MOTION_DOT": 8.04e-06,
        "MEAN_MOTION_DDOT": 0,
        "norad_id": 39208,
        "name": "SHIYAN-7 (SY-7)",
        "group": "active",
        "longitude_deg": NaN,
        "latitude_deg": NaN,
        "alt_km": NaN,
        "orbit_class": "HEO",
        "timestamp": "2025-11-30T05:40:21.617132+00:00"
      },
      "geometry": {
        "type": "Point",
        "coordinates": [
          NaN,
          NaN
        ]
      }
    },
    {
      "type": "Feature",
      "properties": {
        "OBJECT_NAME": "CHUANGXIN-3 (CX-3)",
        "OBJECT_ID": "2013-037B",
        "EPOCH": "2025-11-29T17:44:33.783360",
        "MEAN_MOTION": 14.74058882,
        "ECCENTRICITY": 0.0005368,
        "INCLINATION": 98.0812,
        "RA_OF_ASC_NODE": 335.4832,
        "ARG_OF_PERICENTER": 61.1643,
        "MEAN_ANOMALY": 299.0104,
        "EPHEMERIS_TYPE": 0,
        "CLASSIFICATION_TYPE": "U",
        "NORAD_CAT_ID": 39209,
        "ELEMENT_SET_NO": 999,
        "REV_AT_EPOCH": 66296,
        "BSTAR": 0.00021686,
        "MEAN_MOTION_DOT": 1.376e-05,
        "MEAN_MOTION_DDOT": 0,
        "norad_id": 39209,
        "name": "CHUANGXIN-3 (CX-3)",
        "group": "active",
        "longitude_deg": NaN,
        "latitude_deg": NaN,
        "alt_km": NaN,
        "orbit_class": "HEO",
        "timestamp": "2025-11-30T05:40:21.617138+00:00"
      },
      "geometry": {
        "type": "Point",
        "coordinates": [
          NaN,
          NaN
        ]
      }
    }
  ]
}